CIC_OEM_VERS = 2.0
CREATION_DATE = 2024-12-08T21:18:59.432059
ORIGINATOR = ISAE-SUPAERO


META_START
OBJECT_NAME = PLEIADES1B
OBJECT_ID = PLEIADES1B
CENTER_NAME = Earth
REF_FRAME = EME2000
TIME_SYSTEM = UTC
START_TIME = 2024-12-08T13:03:08.638
USEABLE_START_TIME = 2024-12-08T13:03:08.638
USEABLE_STOP_TIME = 2024-12-10T22:53:08.638
STOP_TIME = 2024-12-10T22:53:08.638
INTERPOLATION = lagrange
INTERPOLATION_DEGREE = 5
META_STOP



60652 46988.638 4008.8472 5830.6912 14.665119 0.87078701 -0.618583 7.429079600000001
60652 47588.638 3710.6591000000003 4340.7435000000005 4173.6065 -1.829269 -4.1764553 5.9609667
60652 48188.638 1959.5857 1151.1536 6694.5845 -3.8086148 -6.093646700000001 2.1576511999999997
60652 48788.638 -557.67114 -2488.6617 6592.0825 -4.297446 -5.6271902 -2.4881088
60652 49388.638 -2856.1632999999997 -5154.1792000000005 3904.6808 -3.1030629 -2.95404 -6.1677738
60652 49988.638 -4035.0824 -5800.3594 -313.42114000000004 -0.6914746199999999 0.8786402900000001 -7.4249527
60652 50588.638 -3628.9659 -4167.5714 -4410.0921 1.9926321 4.3706233 -5.7698785
60652 51188.638 -1802.0472 -902.73772 -6777.150900000001 3.8891231 6.1414327 -1.8539413
60652 51788.638 729.41513 2715.401 -6489.4592 4.2629142 5.5101642 2.7797241
60652 52388.638 2975.6347 5272.4178 -3660.7061000000003 2.9701314 2.7232612 6.3300696
60652 52988.638 4056.6631 5765.0866 604.50093 0.5105078700000001 -1.1370762 7.4019174
60652 53588.638 3547.1663 3997.2843 4632.894 -2.1489213 -4.551528 5.5661266
60652 54188.638 1649.2466000000002 664.99224 6843.1562 -3.9619636000000003 -6.1783599 1.5522010000000002
60652 54788.638 -893.2161600000001 -2927.3339 6372.8752 -4.225383 -5.3897005 -3.0670088
60652 55388.638 -3086.3764 -5375.2428 3405.1693 -2.8331608999999998 -2.4864984 -6.4921434
60652 55988.638 -4069.9546 -5717.6231 -896.22323 -0.33125191000000004 1.3909017 -7.368538
60652 56588.638 -3453.5728 -3811.8003 -4846.4849 2.3029517 4.7292947000000005 -5.3600179
60652 57188.638 -1479.3092 -406.89549 -6887.925 4.038401 6.217478 -1.236514
60652 57788.638 1070.4443 3151.7575 -6225.330599999999 4.1808812 5.2526192 3.3778420000000002
60652 58388.638 3200.1513 5474.9227 -3118.9719 2.6802878999999997 2.2247783 6.6564833
60652 58988.638 4072.1379 5644.5388 1223.4373 0.12652294 -1.6796938000000001 7.3234892
60652 59588.638 3342.5531 3594.1257 5083.890200000001 -2.4743547 -4.9205017 5.105717800000001
60652 60188.638 1300.4485 132.1538 6943.9602 -4.0991447 -6.2253182 0.88827908
60652 60788.638 -1250.8746 -3382.0624 6079.866900000001 -4.1164717 -5.0910398 -3.6701541000000004
60652 61388.638 -3312.3565 -5572.2926 2830.4635 -2.5212423 -1.9608578 -6.7929888
60652 61988.638 -4075.7765 -5578.7480000000005 -1531.2927 0.064687691 1.9418992000000002 -7.2482194
60652 62588.638 -3234.2369 -3388.7474 -5287.252 2.6265411 5.0875808 -4.863750100000001
60652 63188.638 -1123.7343999999998 130.23548 -6961.192900000001 4.1613541 6.2396111 -0.55595998
60652 63788.638 1427.1082 3598.1014 -5900.3102 4.0542315 4.9286416 3.9756621
60652 64388.638 3417.0289 5650.5241 -2509.9538 2.3522447000000004 1.6790022 6.938678299999999
60652 64988.638 4062.7241000000004 5479.8411 1870.9837 -0.27200493000000003 -2.2263771 7.1642662
60652 65588.638 3115.4418 3160.1667 5517.6732 -2.7767133 -5.2415618 4.580258
60652 66188.638 952.6259 -393.16452000000004 7008.5419 -4.1882586 -6.2021958999999995 0.22384324000000003
60652 66788.638 -1580.4207 -3793.8799 5769.3331 -3.9703907 -4.7507003999999995 -4.2163511
60652 67388.638 -3497.664 -5717.0127 2279.2087 -2.2018846 -1.4389842000000002 -7.024688500000001
60652 67988.638 -4046.0125000000003 -5403.196900000001 -2103.0625 0.43798682000000005 2.45222 -7.085431300000001
60652 68588.638 -3005.9208 -2968.181 -5657.3234 2.9110978 5.3879613 -4.3560664
60652 69188.638 -784.77926 632.91748 -6982.6314 4.2404581 6.2070827 0.08787210000000001
60652 69788.638 1745.7654 3988.6747000000005 -5564.553400000001 3.895372 4.5722857 4.5082837
60652 70388.638 3584.2072000000003 5765.3045 -1943.5026 2.0256641 1.1503648000000002 7.1501848
60652 70988.638 4011.9857 5272.8692 2444.1243 -0.64835697 -2.7354188 6.9735527
60652 71588.638 2859.1305 2703.0115 5866.2798 -3.060293 -5.5359547000000005 4.0511886
60652 72188.638 583.8044 -928.95024 6982.9373 -4.2643472000000004 -6.1574127 -0.45087925
60652 72788.638 -1920.0338000000002 -4198.187900000001 5362.8964000000005 -3.7989459 -4.3709815 -4.7648356000000005
60652 73388.638 -3673.882 -5827.5387 1642.8671000000002 -1.8485354999999999 -0.87532012 -7.2138897
60652 73988.638 -3991.5346 -5178.8249000000005 -2720.688 0.82522185 2.9638946 -6.8370932
60652 74588.638 -2749.6137000000003 -2506.4511 -6019.1269 3.1734841 5.6411771 -3.78467
60652 75188.638 -434.55400000000003 1144.1832 -6962.4803 4.282087499999999 6.1152548 0.74812349
60652 75788.638 2049.3674 4346.165599999999 -5177.6462 3.7176604 4.196712499999999 5.0011006
60652 76388.638 3729.2367999999997 5844.336200000001 -1361.6173999999999 1.6885972999999999 0.61985533 7.2979498000000005
60652 76988.638 3940.7805000000003 5040.8731 2993.7602 -1.0075858 -3.2066016 6.722606600000001
60652 77588.638 2600.5226000000002 2252.3115000000003 6167.5461 -3.3039609000000003 -5.7677019000000005 3.5005213
60652 78188.638 237.67166 -1422.9772 6913.9866 -4.2989564 -6.0594349 -1.0941268
60652 78788.638 -2217.4588 -4539.0835 4943.1125 -3.6065361 -3.9742553 -5.252038499999999
60652 79388.638 -3803.0464 -5875.334900000001 1029.3603 -1.4986702 -0.32800419 -7.3487100000000005
60652 79988.638 -3896.8665 -4906.861 -3289.44 1.1939758999999999 3.4429479 -6.5576296
60652 80588.638 -2464.8961 -2016.6269 -6318.8796 3.4127826 5.8583988 -3.2000892
60652 81188.638 -71.588779 1660.1190000000001 -6877.5646 4.2947678 5.9825772 1.4004019
60652 81788.638 2349.3158 4689.130700000001 -4747.840099999999 3.5010114 3.7707033 5.4598808
60652 82388.638 3849.1876 5881.343900000001 -758.02574 1.3337402999999999 0.07432248699999999 7.3921107
60652 82988.638 3839.8242999999998 4767.1602 3531.2254 -1.3644029 -3.6622391 6.416021
60652 83588.638 2321.4127000000003 1779.3065000000001 6429.933 -3.5233631 -5.9563153 2.9166397
60652 84188.638 -107.21107 -1906.1729 6801.143900000001 -4.2974528 -5.9120823 -1.7207076
60652 84788.638 -2493.9165000000003 -4845.0675 4501.5315 -3.3874367000000003 -3.5503959000000003 -5.68458
60652 85388.638 -3902.2313 -5883.3117 432.02501 -1.1467671000000002 0.20794720000000003 -7.417448
60652 85988.638 -3778.1818 -4611.277099999999 -3807.312 1.541021 3.8813256000000003 -6.235908
60653 188.638 -2172.417 -1530.0666 -6552.639 3.6214913 6.0298098 -2.6091873999999997
60653 788.638 281.37558 2148.0539 -6732.0252 4.2803254 5.8148539 2.0307432
60653 1388.638 2624.9874 4986.8988 -4275.726 3.2665047 3.3263034 5.8798211
60653 1988.638 3940.8981000000003 5873.7244 -142.64285 0.96993384 -0.47220646 7.4287063
60653 2588.638 3711.5417 4457.419900000001 4046.645 -1.7081288 -4.0876251 6.058929600000001
60653 3188.638 2027.8177 1294.4147 6646.8682 -3.7127433 -6.0966309 2.314789
60653 3788.638 -449.16186 -2375.0536 6641.1466 -4.2634828 -5.719576 -2.3333741
60653 4388.638 -2750.1383 -5114.8521 4030.4625 -3.1445018 -3.1003911 -6.0740198
60653 4988.638 -3972.0211000000004 -5848.2163 -163.57622 -0.78871649 0.74135595 -7.4317529
60653 5588.638 -3632.5226000000002 -4282.679 -4293.2272 1.8760741 4.2921857 -5.869016800000001
60653 6188.638 -1864.0618000000002 -1033.9314 -6723.972400000001 3.8072732 6.165725800000001 -2.009188
60653 6788.638 634.92333 2622.9029 -6523.9005 4.2389261 5.6092053 2.6505069
60653 7388.638 2885.1372 5250.7745 -3756.1171000000004 3.0067572 2.8528462 6.2596524
60653 7988.638 4004.5986000000003 5820.487700000001 488.38532000000004 0.59876916 -1.0168639 7.4055105999999995
60653 8588.637999999999 3558.3593 4114.2978 4542.2833 -2.0341861 -4.4757511 5.6503714
60653 9188.637999999999 1726.0758 805.16314 6824.0573 -3.8664111 -6.1815512 1.6999077
60653 9788.637999999999 -776.78449 -2816.6727 6447.8874000000005 -4.195113999999999 -5.4835453 -2.9137466
60653 10388.637999999999 -2976.1888 -5340.0692 3553.7653 -2.8854623000000004 -2.6383132000000002 -6.4093808
60653 10988.638 -4007.6724 -5768.8496 -735.16819 -0.43335647 1.2615433 -7.4000951
60653 11588.638 -3460.256 -3925.0604 -4733.3442000000005 2.1958143 4.674274400000001 -5.4693887000000005
60653 12188.637999999999 -1549.1958000000002 -534.32672 -6861.843400000001 3.9562767 6.241688600000001 -1.3839480000000002
60653 12788.637999999999 970.4526500000001 3066.1007000000004 -6286.7845 4.1586766 5.3534401 3.2383178
60653 13388.637999999999 3109.8221000000003 5463.6183 -3236.2778 2.7298253 2.3663831 6.5825767
60653 13988.637999999999 4029.4929 5718.1174 1087.3576 0.23210527 -1.5456894 7.3369387
60653 14588.638 3372.1944 3734.5936 4985.1282 -2.3474922 -4.8403332 5.2155909000000005
60653 15188.638 1399.9424 294.37142 6935.710099999999 -4.0038469 -6.2389932 1.0678244
60653 15788.637999999999 -1116.7341000000001 -3260.236 6181.9569 -4.1017421999999994 -5.2089686 -3.4974482
60653 16388.638 -3197.3093 -5542.7265 3011.9806000000003 -2.5955995 -2.1365513999999997 -6.7126561
60653 16988.638 -4023.3559 -5651.1859 -1340.0524 -0.062257137000000004 1.7903127 -7.2996094000000005
60653 17588.638 -3266.3237000000004 -3536.1101000000003 -5163.4343 2.4994542 5.0189101 -5.0079021
60653 18188.638 -1224.3851000000002 -29.968173 -6950.4164 4.0753461 6.2702918 -0.7448132399999999
60653 18788.638 1301.1507 3492.0005 -6000.4726 4.0456758 5.0512343 3.8130057
60653 19388.638 3310.8599 5635.1050000000005 -2686.8523 2.4266009 1.8481950999999999 6.8669723000000005
60653 19988.638 4018.7014 5561.7901 1688.4328 -0.14806642 -2.0848654 7.2183654
60653 20588.638 3145.2232000000004 3300.013 5397.563700000001 -2.6616974 -5.1946643 4.727139500000001
60653 21188.638 1037.185 -257.87901 6985.744900000001 -4.1238997 -6.258609000000001 0.38744847
60653 21788.638 -1476.5418 -3714.6889 5833.791700000001 -3.9708251 -4.8732028000000005 -4.0959787
